{
  "norad_id": 46173,
  "name": "STARLINK-1640",
  "history": [
    {
      "epoch": "2026-03-28T18:55:05.244960Z",
      "apogee_km": 397.1574429783186,
      "perigee_km": 391.09640221287464,
      "latitude_deg": -1.4922140899959066e-05,
      "longitude_deg": 96.65465922616458,
      "height_km": 396.52079551187535,
      "semi_major_axis_km": 6772.263922595596,
      "eccentricity": 0.00044749,
      "inclination_deg": 53.0482,
      "raan_deg": 206.6302,
      "arg_perigee_deg": 240.5062,
      "mean_anomaly_deg": 119.5503,
      "mean_motion_rev_day": 15.57765029
    },
    {
      "epoch": "2026-03-29T04:09:23.755104Z",
      "apogee_km": 396.8789412831338,
      "perigee_km": 390.979117358389,
      "latitude_deg": 1.0432133120800825e-05,
      "longitude_deg": -44.17005809062436,
      "height_km": 396.11199627352295,
      "semi_major_axis_km": 6772.066029320761,
      "eccentricity": 0.0004356,
      "inclination_deg": 53.0482,
      "raan_deg": 204.762,
      "arg_perigee_deg": 244.2611,
      "mean_anomaly_deg": 115.7951,
      "mean_motion_rev_day": 15.57833311
    },
    {
      "epoch": "2026-03-30T03:15:02.442816Z",
      "apogee_km": 396.29085453355674,
      "perigee_km": 390.39425013938217,
      "latitude_deg": -5.828396846676285e-06,
      "longitude_deg": -36.202808638399816,
      "height_km": 395.17493867851,
      "semi_major_axis_km": 6771.479552336469,
      "eccentricity": 0.0004354,
      "inclination_deg": 53.0479,
      "raan_deg": 200.0889,
      "arg_perigee_deg": 251.6069,
      "mean_anomaly_deg": 108.4469,
      "mean_motion_rev_day": 15.58035701
    },
    {
      "epoch": "2026-03-30T06:19:46.741152Z",
      "apogee_km": 396.20180761250504,
      "perigee_km": 390.3023026121291,
      "latitude_deg": -6.606051180564363e-06,
      "longitude_deg": -83.13673434888352,
      "height_km": 395.034486043202,
      "semi_major_axis_km": 6771.389055112317,
      "eccentricity": 0.00043562,
      "inclination_deg": 53.0478,
      "raan_deg": 199.466,
      "arg_perigee_deg": 252.6362,
      "mean_anomaly_deg": 107.4173,
      "mean_motion_rev_day": 15.58066935
    },
    {
      "epoch": "2026-03-30T14:01:36.676128Z",
      "apogee_km": 396.027541268837,
      "perigee_km": 390.0898797502914,
      "latitude_deg": -2.6260619737016712e-05,
      "longitude_deg": 159.53077597732434,
      "height_km": 394.77413170072083,
      "semi_major_axis_km": 6771.1957105095635,
      "eccentricity": 0.00043845,
      "inclination_deg": 53.0482,
      "raan_deg": 197.9077,
      "arg_perigee_deg": 254.1028,
      "mean_anomaly_deg": 105.95,
      "mean_motion_rev_day": 15.58133669
    },
    {
      "epoch": "2026-03-30T18:38:42.131328Z",
      "apogee_km": 395.89442008220885,
      "perigee_km": 389.98868536852206,
      "latitude_deg": -1.883489047854301e-06,
      "longitude_deg": 89.13360243920864,
      "height_km": 394.5898754662841,
      "semi_major_axis_km": 6771.078552725366,
      "eccentricity": 0.0004361,
      "inclination_deg": 53.0483,
      "raan_deg": 196.9729,
      "arg_perigee_deg": 255.365,
      "mean_anomaly_deg": 104.6878,
      "mean_motion_rev_day": 15.58174109
    },
    {
      "epoch": "2026-03-31T17:44:02.717376Z",
      "apogee_km": 395.2702664087601,
      "perigee_km": 389.43545824540615,
      "latitude_deg": -4.691210064967641e-06,
      "longitude_deg": 97.17549277574237,
      "height_km": 393.638125010632,
      "semi_major_axis_km": 6770.489862327083,
      "eccentricity": 0.0004309,
      "inclination_deg": 53.0486,
      "raan_deg": 192.2988,
      "arg_perigee_deg": 262.4591,
      "mean_anomaly_deg": 97.5931,
      "mean_motion_rev_day": 15.58377337
    },
    {
      "epoch": "2026-04-01T18:21:29.282400Z",
      "apogee_km": 394.34304135501316,
      "perigee_km": 388.5009119581591,
      "latitude_deg": -1.4043613390452705e-05,
      "longitude_deg": 81.8169258608457,
      "height_km": 392.2961659576048,
      "semi_major_axis_km": 6769.558976656586,
      "eccentricity": 0.0004315,
      "inclination_deg": 53.0481,
      "raan_deg": 187.3122,
      "arg_perigee_deg": 270.5554,
      "mean_anomaly_deg": 89.4963,
      "mean_motion_rev_day": 15.58698788
    }
  ]
}